{"type": "FeatureCollection", "features": [ {"type": "Feature", "properties": {"norad_id": 30716, "name": "FENGYUN 1C DEB", "group": "fengyun-1c-debris", "lat": 32.47932457944533, "lon": 7.782463808593092, "alt_km": 630.2712540056764, "timestamp": "2025-12-23T20:42:37.354232+00:00", "meta": {"OBJECT_NAME": "FENGYUN 1C DEB", "OBJECT_ID": "1999-025ASA", "EPOCH": "2025-12-21T11:29:45.574944", "MEAN_MOTION": 14.79788038, "ECCENTRICITY": 0.00206906, "INCLINATION": 98.8715, "RA_OF_ASC_NODE": 179.4459, "ARG_OF_PERICENTER": 54.2668, "MEAN_ANOMALY": 359.7646, "EPHEMERIS_TYPE": 0, "CLASSIFICATION_TYPE": "U", "NORAD_CAT_ID": 30716, "ELEMENT_SET_NO": 999, "REV_AT_EPOCH": 97953, "BSTAR": 0.0030225465, "MEAN_MOTION_DOT": 0.0002284, "MEAN_MOTION_DDOT": 0}, "tle": {"line1": "1 30716U 99025ASA 25355.47899971  .00022840  00000+0  30225-2 0  9995", "line2": "2 30716  98.8715 179.4459 0020690  54.2668 359.7646 14.79788038979532"}}, "geometry": {"type": "Point", "coordinates": [7.782463808593092, 32.47932457944533]}}, {"type": "Feature", "properties": {"norad_id": 30717, "name": "FENGYUN 1C DEB", "group": "fengyun-1c-debris", "lat": 37.84935873127221, "lon": -104.0756744872543, "alt_km": 817.0478221322755, "timestamp": "2025-12-23T20:42:37.354242+00:00", "meta": {"OBJECT_NAME": "FENGYUN 1C DEB", "OBJECT_ID": "1999-025ASB", "EPOCH": "2025-12-21T03:48:25.911072", "MEAN_MOTION": 14.20584881, "ECCENTRICITY": 0.00490009, "INCLINATION": 99.0171, "RA_OF_ASC_NODE": 66.0794, "ARG_OF_PERICENTER": 233.8848, "MEAN_ANOMALY": 125.7787, "EPHEMERIS_TYPE": 0, "CLASSIFICATION_TYPE": "U", "NORAD_CAT_ID": 30717, "ELEMENT_SET_NO": 999, "REV_AT_EPOCH": 96656, "BSTAR": 0.00094660339, "MEAN_MOTION_DOT": 2.014e-05, "MEAN_MOTION_DDOT": 0}, "tle": {"line1": "1 30717U 99025ASB 25355.15863323  .00002014  00000+0  94660-3 0  9998", "line2": "2 30717  99.0171  66.0794 0049000 233.8848 125.7787 14.20584881966568"}}, "geometry": {"type": "Point", "coordinates": [-104.0756744872543, 37.84935873127221]}}, {"type": "Feature", "properties": {"norad_id": 30718, "name": "FENGYUN 1C DEB", "group": "fengyun-1c-debris", "lat": 4.026692069590517, "lon": 77.76343003479936, "alt_km": 833.7154692270951, "timestamp": "2025-12-23T20:42:37.354252+00:00", "meta": {"OBJECT_NAME": "FENGYUN 1C DEB", "OBJECT_ID": "1999-025ASC", "EPOCH": "2025-12-22T16:01:54.039648", "MEAN_MOTION": 14.24414951, "ECCENTRICITY": 0.00571138, "INCLINATION": 98.8901, "RA_OF_ASC_NODE": 77.1859, "ARG_OF_PERICENTER": 128.5276, "MEAN_ANOMALY": 232.1042, "EPHEMERIS_TYPE": 0, "CLASSIFICATION_TYPE": "U", "NORAD_CAT_ID": 30718, "ELEMENT_SET_NO": 999, "REV_AT_EPOCH": 96915, "BSTAR": 0.0013988309, "MEAN_MOTION_DOT": 3.249e-05, "MEAN_MOTION_DDOT": 0}, "tle": {"line1": "1 30718U 99025ASC 25356.66798657  .00003249  00000+0  13988-2 0  9997", "line2": "2 30718  98.8901  77.1859 0057113 128.5276 232.1042 14.24414951969150"}}, "geometry": {"type": "Point", "coordinates": [77.76343003479936, 4.026692069590517]}}, {"type": "Feature", "properties": {"norad_id": 30719, "name": "FENGYUN 1C DEB", "group": "fengyun-1c-debris", "lat": -29.824126136363514, "lon": 145.55502433122803, "alt_km": 707.8644065007175, "timestamp": "2025-12-23T20:42:37.354262+00:00", "meta": {"OBJECT_NAME": "FENGYUN 1C DEB", "OBJECT_ID": "1999-025ASD", "EPOCH": "2025-12-21T03:02:06.375552", "MEAN_MOTION": 14.59483939, "ECCENTRICITY": 0.00106523, "INCLINATION": 98.8874, "RA_OF_ASC_NODE": 137.4798, "ARG_OF_PERICENTER": 172.891, "MEAN_ANOMALY": 187.2441, "EPHEMERIS_TYPE": 0, "CLASSIFICATION_TYPE": "U", "NORAD_CAT_ID": 30719, "ELEMENT_SET_NO": 999, "REV_AT_EPOCH": 97571, "BSTAR": 0.0021584794, "MEAN_MOTION_DOT": 0.0001021, "MEAN_MOTION_DDOT": 0}, "tle": {"line1": "1 30719U 99025ASD 25355.12646268  .00010210  00000+0  21585-2 0  9996", "line2": "2 30719  98.8874 137.4798 0010652 172.8910 187.2441 14.59483939975718"}}, "geometry": {"type": "Point", "coordinates": [145.55502433122803, -29.824126136363514]}}, {"type": "Feature", "properties": {"norad_id": 30720, "name": "FENGYUN 1C DEB", "group": "fengyun-1c-debris", "lat": -32.94055169778991, "lon": -14.16202396828315, "alt_km": 797.8947236837985, "timestamp": "2025-12-23T20:42:37.354272+00:00", "meta": {"OBJECT_NAME": "FENGYUN 1C DEB", "OBJECT_ID": "1999-025ASE", "EPOCH": "2025-12-20T11:19:26.302944", "MEAN_MOTION": 14.29137577, "ECCENTRICITY": 0.00324193, "INCLINATION": 99.0359, "RA_OF_ASC_NODE": 168.2428, "ARG_OF_PERICENTER": 306.4307, "MEAN_ANOMALY": 110.1757, "EPHEMERIS_TYPE": 0, "CLASSIFICATION_TYPE": "U", "NORAD_CAT_ID": 30720, "ELEMENT_SET_NO": 999, "REV_AT_EPOCH": 97599, "BSTAR": 0.00029074255, "MEAN_MOTION_DOT": 6.94e-06, "MEAN_MOTION_DDOT": 0}, "tle": {"line1": "1 30720U 99025ASE 25354.47183221  .00000694  00000+0  29074-3 0  9997", "line2": "2 30720  99.0359 168.2428 0032419 306.4307 110.1757 14.29137577975999"}}, "geometry": {"type": "Point", "coordinates": [-14.16202396828315, -32.94055169778991]}}, {"type": "Feature", "properties": {"norad_id": 30721, "name": "FENGYUN 1C DEB", "group": "fengyun-1c-debris", "lat": 7.034204830885572, "lon": 128.8655536994824, "alt_km": 646.3903477107442, "timestamp": "2025-12-23T20:42:37.354282+00:00", "meta": {"OBJECT_NAME": "FENGYUN 1C DEB", "OBJECT_ID": "1999-025ASF", "EPOCH": "2025-12-22T04:27:32.053824", "MEAN_MOTION": 14.7221586, "ECCENTRICITY": 0.00283889, "INCLINATION": 98.7102, "RA_OF_ASC_NODE": 128.1539, "ARG_OF_PERICENTER": 310.453, "MEAN_ANOMALY": 172.6995, "EPHEMERIS_TYPE": 0, "CLASSIFICATION_TYPE": "U", "NORAD_CAT_ID": 30721, "ELEMENT_SET_NO": 999, "REV_AT_EPOCH": 97981, "BSTAR": 0.0034654087, "MEAN_MOTION_DOT": 0.00022006, "MEAN_MOTION_DDOT": 0}, "tle": {"line1": "1 30721U 99025ASF 25356.18578766  .00022006  00000+0  34654-2 0  9990", "line2": "2 30721  98.7102 128.1539 0028388 310.4530 172.6995 14.72215860979815"}}, "geometry": {"type": "Point", "coordinates": [128.8655536994824, 7.034204830885572]}}, {"type": "Feature", "properties": {"norad_id": 30723, "name": "FENGYUN 1C DEB", "group": "fengyun-1c-debris", "lat": 80.25821134429705, "lon": -30.670310300419292, "alt_km": 754.4899628329249, "timestamp": "2025-12-23T20:42:37.354293+00:00", "meta": {"OBJECT_NAME": "FENGYUN 1C DEB", "OBJECT_ID": "1999-025ASH", "EPOCH": "2025-12-23T05:32:22.168032", "MEAN_MOTION": 14.41471225, "ECCENTRICITY": 0.00162951, "INCLINATION": 98.8427, "RA_OF_ASC_NODE": 83.6172, "ARG_OF_PERICENTER": 231.638, "MEAN_ANOMALY": 184.1856, "EPHEMERIS_TYPE": 0, "CLASSIFICATION_TYPE": "U", "NORAD_CAT_ID": 30723, "ELEMENT_SET_NO": 999, "REV_AT_EPOCH": 97522, "BSTAR": 0.0021850854, "MEAN_MOTION_DOT": 7.062e-05, "MEAN_MOTION_DDOT": 0}, "tle": {"line1": "1 30723U 99025ASH 25357.23081213  .00007062  00000+0  21851-2 0  9995", "line2": "2 30723  98.8427  83.6172 0016295 231.6380 184.1856 14.41471225975227"}}, "geometry": {"type": "Point", "coordinates": [-30.670310300419292, 80.25821134429705]}}, {"type": "Feature", "properties": {"norad_id": 30724, "name": "FENGYUN 1C DEB", "group": "fengyun-1c-debris", "lat": -10.058055505978176, "lon": 1.7860689792610658, "alt_km": 719.1905092684192, "timestamp": "2025-12-23T20:42:37.354303+00:00", "meta": {"OBJECT_NAME": "FENGYUN 1C DEB", "OBJECT_ID": "1999-025ASJ", "EPOCH": "2025-12-21T06:50:28.140288", "MEAN_MOTION": 14.37068864, "ECCENTRICITY": 0.0093076, "INCLINATION": 99.3156, "RA_OF_ASC_NODE": 180.6656, "ARG_OF_PERICENTER": 234.9, "MEAN_ANOMALY": 306.7375, "EPHEMERIS_TYPE": 0, "CLASSIFICATION_TYPE": "U", "NORAD_CAT_ID": 30724, "ELEMENT_SET_NO": 999, "REV_AT_EPOCH": 98575, "BSTAR": 0.00034681, "MEAN_MOTION_DOT": 1.029e-05, "MEAN_MOTION_DDOT": 0}, "tle": {"line1": "1 30724U 99025ASJ 25355.28504792  .00001029  00000+0  34681-3 0  9994", "line2": "2 30724  99.3156 180.6656 0093076 234.9000 306.7375 14.37068864985758"}}, "geometry": {"type": "Point", "coordinates": [1.7860689792610658, -10.058055505978176]}}, {"type": "Feature", "properties": {"norad_id": 30725, "name": "FENGYUN 1C DEB", "group": "fengyun-1c-debris", "lat": -48.148993440314314, "lon": -123.39463602468803, "alt_km": 884.8926789789966, "timestamp": "2025-12-23T20:42:37.354314+00:00", "meta": {"OBJECT_NAME": "FENGYUN 1C DEB", "OBJECT_ID": "1999-025ASK", "EPOCH": "2025-12-23T04:39:52.645248", "MEAN_MOTION": 14.16117008, "ECCENTRICITY": 0.00868059, "INCLINATION": 99.0065, "RA_OF_ASC_NODE": 66.1285, "ARG_OF_PERICENTER": 0.3582, "MEAN_ANOMALY": 62.7773, "EPHEMERIS_TYPE": 0, "CLASSIFICATION_TYPE": "U", "NORAD_CAT_ID": 30725, "ELEMENT_SET_NO": 999, "REV_AT_EPOCH": 96496, "BSTAR": 0.0011557136, "MEAN_MOTION_DOT": 2.324e-05, "MEAN_MOTION_DDOT": 0}, "tle": {"line1": "1 30725U 99025ASK 25357.19435932  .00002324  00000+0  11557-2 0  9991", "line2": "2 30725  99.0065  66.1285 0086805   0.3582  62.7773 14.16117008964966"}}, "geometry": {"type": "Point", "coordinates": [-123.39463602468803, -48.148993440314314]}}, {"type": "Feature", "properties": {"norad_id": 30726, "name": "FENGYUN 1C DEB", "group": "fengyun-1c-debris", "lat": -7.939234664696995, "lon": 1.2338135472516647, "alt_km": 917.6321637240553, "timestamp": "2025-12-23T20:42:37.354324+00:00", "meta": {"OBJECT_NAME": "FENGYUN 1C DEB", "OBJECT_ID": "1999-025ASL", "EPOCH": "2025-12-22T06:10:50.632608", "MEAN_MOTION": 14.09335877, "ECCENTRICITY": 0.00783793, "INCLINATION": 99.2678, "RA_OF_ASC_NODE": 358.2779, "ARG_OF_PERICENTER": 199.5944, "MEAN_ANOMALY": 291.3923, "EPHEMERIS_TYPE": 0, "CLASSIFICATION_TYPE": "U", "NORAD_CAT_ID": 30726, "ELEMENT_SET_NO": 999, "REV_AT_EPOCH": 96117, "BSTAR": 0.0010278257, "MEAN_MOTION_DOT": 1.796e-05, "MEAN_MOTION_DDOT": 0}, "tle": {"line1": "1 30726U 99025ASL 25356.25753047  .00001796  00000+0  10278-2 0  9999", "line2": "2 30726  99.2678 358.2779 0078379 199.5944 291.3923 14.09335877961177"}}, "geometry": {"type": "Point", "coordinates": [1.2338135472516647, -7.939234664696995]}}]}